{
  "type": "FeatureCollection",
  "features": [
    {
      "type": "Feature",
      "properties": {
        "norad_id": 15362,
        "name": "NOVA 3",
        "group": "nnss",
        "lat": 1.3224825086372856,
        "lon": -99.35954672585424,
        "alt_km": 1189.8415546265214,
        "timestamp": "2025-12-21T11:31:43.124354+00:00",
        "meta_object_name": "NOVA 3",
        "meta_object_id": "1984-110A",
        "meta_epoch": "2025-12-21T03:41:40.892928",
        "meta_mean_motion": 13.23045543,
        "meta_eccentricity": 0.0029984,
        "meta_inclination": 90.1221,
        "meta_ra_of_asc_node": 80.6338,
        "meta_arg_of_pericenter": 307.76,
        "meta_mean_anomaly": 117.273,
        "meta_ephemeris_type": 0,
        "meta_classification_type": "U",
        "meta_norad_cat_id": 15362,
        "meta_element_set_no": 999,
        "meta_rev_at_epoch": 98810,
        "meta_bstar": 0.00014383,
        "meta_mean_motion_dot": 6.9e-07,
        "meta_mean_motion_ddot": 0,
        "tle_line1": "1 15362U 84110A   25355.15394552  .00000069  00000+0  14383-3 0  9991",
        "tle_line2": "2 15362  90.1221  80.6338 0029984 307.7600 117.2730 13.23045543988104"
      },
      "geometry": {
        "type": "Point",
        "coordinates": [
          -99.35954672585424,
          1.3224825086372856
        ]
      }
    },
    {
      "type": "Feature",
      "properties": {
        "norad_id": 15935,
        "name": "OSCAR 30",
        "group": "nnss",
        "lat": -52.7129071281687,
        "lon": 100.20751852873707,
        "alt_km": 1176.9092714992166,
        "timestamp": "2025-12-21T11:31:43.124365+00:00",
        "meta_object_name": "OSCAR 30",
        "meta_object_id": "1985-066A",
        "meta_epoch": "2025-12-20T20:09:09.955584",
        "meta_mean_motion": 13.36079432,
        "meta_eccentricity": 0.01691709,
        "meta_inclination": 90.1655,
        "meta_ra_of_asc_node": 99.9796,
        "meta_arg_of_pericenter": 61.2952,
        "meta_mean_anomaly": 48.1693,
        "meta_ephemeris_type": 0,
        "meta_classification_type": "U",
        "meta_norad_cat_id": 15935,
        "meta_element_set_no": 999,
        "meta_rev_at_epoch": 96561,
        "meta_bstar": 0.00010448209,
        "meta_mean_motion_dot": 6.8e-07,
        "meta_mean_motion_ddot": 0,
        "tle_line1": "1 15935U 85066A   25354.83969856  .00000068  00000+0  10448-3 0  9994",
        "tle_line2": "2 15935  90.1655  99.9796 0169170  61.2952  48.1693 13.36079432965615"
      },
      "geometry": {
        "type": "Point",
        "coordinates": [
          100.20751852873707,
          -52.7129071281687
        ]
      }
    },
    {
      "type": "Feature",
      "properties": {
        "norad_id": 15936,
        "name": "OSCAR 24",
        "group": "nnss",
        "lat": 18.498175291658445,
        "lon": 92.4000094682312,
        "alt_km": 1036.9382049737087,
        "timestamp": "2025-12-21T11:31:43.124377+00:00",
        "meta_object_name": "OSCAR 24",
        "meta_object_id": "1985-066B",
        "meta_epoch": "2025-12-21T01:30:06.568128",
        "meta_mean_motion": 13.3593685,
        "meta_eccentricity": 0.0170269,
        "meta_inclination": 90.1791,
        "meta_ra_of_asc_node": 92.4526,
        "meta_arg_of_pericenter": 67.1021,
        "meta_mean_anomaly": 104.8229,
        "meta_ephemeris_type": 0,
        "meta_classification_type": "U",
        "meta_norad_cat_id": 15936,
        "meta_element_set_no": 999,
        "meta_rev_at_epoch": 96754,
        "meta_bstar": 0.00011201,
        "meta_mean_motion_dot": 7.2e-07,
        "meta_mean_motion_ddot": 0,
        "tle_line1": "1 15936U 85066B   25355.06257602  .00000072  00000+0  11201-3 0  9993",
        "tle_line2": "2 15936  90.1791  92.4526 0170269  67.1021 104.8229 13.35936850967543"
      },
      "geometry": {
        "type": "Point",
        "coordinates": [
          92.4000094682312,
          18.498175291658445
        ]
      }
    },
    {
      "type": "Feature",
      "properties": {
        "norad_id": 17070,
        "name": "POLAR BEAR",
        "group": "nnss",
        "lat": 10.875198692769345,
        "lon": -176.5027888270757,
        "alt_km": 978.4334787725056,
        "timestamp": "2025-12-21T11:31:43.124388+00:00",
        "meta_object_name": "POLAR BEAR",
        "meta_object_id": "1986-088A",
        "meta_epoch": "2025-12-21T01:34:32.857248",
        "meta_mean_motion": 13.75252457,
        "meta_eccentricity": 0.0041279,
        "meta_inclination": 89.617,
        "meta_ra_of_asc_node": 183.4403,
        "meta_arg_of_pericenter": 95.2642,
        "meta_mean_anomaly": 24.2916,
        "meta_ephemeris_type": 0,
        "meta_classification_type": "U",
        "meta_norad_cat_id": 17070,
        "meta_element_set_no": 999,
        "meta_rev_at_epoch": 96093,
        "meta_bstar": 8.842e-05,
        "meta_mean_motion_dot": 9.7e-07,
        "meta_mean_motion_ddot": 0,
        "tle_line1": "1 17070U 86088A   25355.06565807  .00000097  00000+0  88420-4 0  9993",
        "tle_line2": "2 17070  89.6170 183.4403 0041279  95.2642  24.2916 13.75252457960934"
      },
      "geometry": {
        "type": "Point",
        "coordinates": [
          -176.5027888270757,
          10.875198692769345
        ]
      }
    },
    {
      "type": "Feature",
      "properties": {
        "norad_id": 18361,
        "name": "OSCAR 27",
        "group": "nnss",
        "lat": 34.990331044538515,
        "lon": 79.33732215100278,
        "alt_km": 1162.894034675298,
        "timestamp": "2025-12-21T11:31:43.124399+00:00",
        "meta_object_name": "OSCAR 27",
        "meta_object_id": "1987-080A",
        "meta_epoch": "2025-12-21T04:12:33.526656",
        "meta_mean_motion": 13.44908294,
        "meta_eccentricity": 0.0103605,
        "meta_inclination": 90.3739,
        "meta_ra_of_asc_node": 79.5878,
        "meta_arg_of_pericenter": 199.4724,
        "meta_mean_anomaly": 160.2454,
        "meta_ephemeris_type": 0,
        "meta_classification_type": "U",
        "meta_norad_cat_id": 18361,
        "meta_element_set_no": 999,
        "meta_rev_at_epoch": 87670,
        "meta_bstar": 0.0001499,
        "meta_mean_motion_dot": 9.9e-07,
        "meta_mean_motion_ddot": 0,
        "tle_line1": "1 18361U 87080A   25355.17538804  .00000099  00000+0  14990-3 0  9991",
        "tle_line2": "2 18361  90.3739  79.5878 0103605 199.4724 160.2454 13.44908294876701"
      },
      "geometry": {
        "type": "Point",
        "coordinates": [
          79.33732215100278,
          34.990331044538515
        ]
      }
    },
    {
      "type": "Feature",
      "properties": {
        "norad_id": 18362,
        "name": "OSCAR 29",
        "group": "nnss",
        "lat": 33.29544252985334,
        "lon": 79.8122903410557,
        "alt_km": 1167.880050216194,
        "timestamp": "2025-12-21T11:31:43.124410+00:00",
        "meta_object_name": "OSCAR 29",
        "meta_object_id": "1987-080B",
        "meta_epoch": "2025-12-21T04:17:34.545120",
        "meta_mean_motion": 13.44449861,
        "meta_eccentricity": 0.0104446,
        "meta_inclination": 90.3751,
        "meta_ra_of_asc_node": 80.0475,
        "meta_arg_of_pericenter": 222.704,
        "meta_mean_anomaly": 152.1595,
        "meta_ephemeris_type": 0,
        "meta_classification_type": "U",
        "meta_norad_cat_id": 18362,
        "meta_element_set_no": 999,
        "meta_rev_at_epoch": 87623,
        "meta_bstar": 0.00014494,
        "meta_mean_motion_dot": 9.5e-07,
        "meta_mean_motion_ddot": 0,
        "tle_line1": "1 18362U 87080B   25355.17887205  .00000095  00000+0  14494-3 0  9999",
        "tle_line2": "2 18362  90.3751  80.0475 0104446 222.7040 152.1595 13.44449861876235"
      },
      "geometry": {
        "type": "Point",
        "coordinates": [
          79.8122903410557,
          33.29544252985334
        ]
      }
    },
    {
      "type": "Feature",
      "properties": {
        "norad_id": 19070,
        "name": "OSCAR 23",
        "group": "nnss",
        "lat": 3.8491634898569305,
        "lon": 16.64177034930655,
        "alt_km": 1283.0914461602742,
        "timestamp": "2025-12-21T11:31:43.124421+00:00",
        "meta_object_name": "OSCAR 23",
        "meta_object_id": "1988-033A",
        "meta_epoch": "2025-12-21T02:46:39.852192",
        "meta_mean_motion": 13.27788505,
        "meta_eccentricity": 0.0190221,
        "meta_inclination": 90.3203,
        "meta_ra_of_asc_node": 16.652,
        "meta_arg_of_pericenter": 156.671,
        "meta_mean_anomaly": 266.4478,
        "meta_ephemeris_type": 0,
        "meta_classification_type": "U",
        "meta_norad_cat_id": 19070,
        "meta_element_set_no": 999,
        "meta_rev_at_epoch": 82364,
        "meta_bstar": 0.00012248,
        "meta_mean_motion_dot": 7e-07,
        "meta_mean_motion_ddot": 0,
        "tle_line1": "1 19070U 88033A   25355.11573903  .00000070  00000+0  12248-3 0  9994",
        "tle_line2": "2 19070  90.3203  16.6520 0190221 156.6710 266.4478 13.27788505823643"
      },
      "geometry": {
        "type": "Point",
        "coordinates": [
          16.64177034930655,
          3.8491634898569305
        ]
      }
    }
  ]
}